{
  "norad_id": 52488,
  "name": "STARLINK-3892",
  "history": [
    {
      "epoch": "2026-04-11T20:47:02.743872Z",
      "apogee_km": 540.676984473369,
      "perigee_km": 538.8285243309929,
      "latitude_deg": -1.54620517463371e-05,
      "longitude_deg": 118.34740463136079,
      "height_km": 540.6646768046265,
      "semi_major_axis_km": 6917.88975440218,
      "eccentricity": 0.0001336,
      "inclination_deg": 53.2164,
      "raan_deg": 270.1882,
      "arg_perigee_deg": 91.0098,
      "mean_anomaly_deg": 269.1047,
      "mean_motion_rev_day": 15.08836936
    },
    {
      "epoch": "2026-04-12T22:13:12.524160Z",
      "apogee_km": 540.6702546031474,
      "perigee_km": 538.8051955772626,
      "latitude_deg": 5.229704278582933e-05,
      "longitude_deg": 91.00368167523233,
      "height_km": 540.6862236744736,
      "semi_major_axis_km": 6917.874725090204,
      "eccentricity": 0.0001348,
      "inclination_deg": 53.2162,
      "raan_deg": 265.4298,
      "arg_perigee_deg": 93.2525,
      "mean_anomaly_deg": 266.8622,
      "mean_motion_rev_day": 15.08841853
    },
    {
      "epoch": "2026-04-14T20:19:24.159360Z",
      "apogee_km": 540.7344842355733,
      "perigee_km": 538.7684203374338,
      "latitude_deg": 8.418847808289039e-06,
      "longitude_deg": 108.93927841911038,
      "height_km": 540.6718068724704,
      "semi_major_axis_km": 6917.888452286504,
      "eccentricity": 0.0001421,
      "inclination_deg": 53.2156,
      "raan_deg": 256.8073,
      "arg_perigee_deg": 91.453,
      "mean_anomaly_deg": 268.6625,
      "mean_motion_rev_day": 15.08837362
    },
    {
      "epoch": "2026-04-15T20:10:10.997184Z",
      "apogee_km": 540.6560353763662,
      "perigee_km": 538.8393988496518,
      "latitude_deg": 3.4520444460300834e-05,
      "longitude_deg": 105.80390759806177,
      "height_km": 540.6374141897102,
      "semi_major_axis_km": 6917.884717113008,
      "eccentricity": 0.0001313,
      "inclination_deg": 53.2164,
      "raan_deg": 252.3464,
      "arg_perigee_deg": 89.6239,
      "mean_anomaly_deg": 270.4904,
      "mean_motion_rev_day": 15.08838584
    },
    {
      "epoch": "2026-04-16T18:25:35.541408Z",
      "apogee_km": 540.6778430903678,
      "perigee_km": 538.8487502519283,
      "latitude_deg": -3.0172979342786814e-05,
      "longitude_deg": 126.87413863759005,
      "height_km": 540.6094589472451,
      "semi_major_axis_km": 6917.900296671148,
      "eccentricity": 0.0001322,
      "inclination_deg": 53.2167,
      "raan_deg": 248.183,
      "arg_perigee_deg": 86.8956,
      "mean_anomaly_deg": 273.2187,
      "mean_motion_rev_day": 15.08833487
    },
    {
      "epoch": "2026-04-17T21:27:08.532864Z",
      "apogee_km": 540.6288551229609,
      "perigee_km": 538.8577394092545,
      "latitude_deg": -4.6905157279840145e-05,
      "longitude_deg": 75.3203518313378,
      "height_km": 540.5911942582802,
      "semi_major_axis_km": 6917.880297266107,
      "eccentricity": 0.00012801,
      "inclination_deg": 53.2165,
      "raan_deg": 243.1266,
      "arg_perigee_deg": 86.9036,
      "mean_anomaly_deg": 273.2102,
      "mean_motion_rev_day": 15.0884003
    },
    {
      "epoch": "2026-04-18T14:56:23.129088Z",
      "apogee_km": 540.4863598059628,
      "perigee_km": 539.0100830997053,
      "latitude_deg": 4.489789447493371e-06,
      "longitude_deg": 169.01959106438886,
      "height_km": 540.7081237297432,
      "semi_major_axis_km": 6917.885221452834,
      "eccentricity": 0.0001067,
      "inclination_deg": 53.2164,
      "raan_deg": 239.8548,
      "arg_perigee_deg": 94.9662,
      "mean_anomaly_deg": 265.1452,
      "mean_motion_rev_day": 15.08838419
    },
    {
      "epoch": "2026-04-19T14:47:09.570336Z",
      "apogee_km": 540.5686574770743,
      "perigee_km": 538.8779324209881,
      "latitude_deg": -7.359084072360418e-06,
      "longitude_deg": 165.88784625778737,
      "height_km": 540.5987206539518,
      "semi_major_axis_km": 6917.8602949490305,
      "eccentricity": 0.0001222,
      "inclination_deg": 53.2152,
      "raan_deg": 235.3959,
      "arg_perigee_deg": 88.628,
      "mean_anomaly_deg": 271.4852,
      "mean_motion_rev_day": 15.08846574
    },
    {
      "epoch": "2026-04-20T14:37:57.753408Z",
      "apogee_km": 540.656085116253,
      "perigee_km": 538.8802588586032,
      "latitude_deg": -7.434843106658889e-06,
      "longitude_deg": 162.74763168169162,
      "height_km": 540.6329504052571,
      "semi_major_axis_km": 6917.905171987428,
      "eccentricity": 0.00012835,
      "inclination_deg": 53.2161,
      "raan_deg": 230.9358,
      "arg_perigee_deg": 88.006,
      "mean_anomaly_deg": 272.1079,
      "mean_motion_rev_day": 15.08831892
    },
    {
      "epoch": "2026-04-21T14:28:43.920768Z",
      "apogee_km": 540.5940998473943,
      "perigee_km": 538.8674000570063,
      "latitude_deg": -9.856122318829736e-06,
      "longitude_deg": 159.61593654508243,
      "height_km": 540.6144963786261,
      "semi_major_axis_km": 6917.8677499522,
      "eccentricity": 0.0001248,
      "inclination_deg": 53.2171,
      "raan_deg": 226.4758,
      "arg_perigee_deg": 89.1979,
      "mean_anomaly_deg": 270.9156,
      "mean_motion_rev_day": 15.08844135
    },
    {
      "epoch": "2026-04-22T14:19:31.628640Z",
      "apogee_km": 540.6225451696218,
      "perigee_km": 538.9096723598923,
      "latitude_deg": 2.1008558515855543e-05,
      "longitude_deg": 156.4775297369955,
      "height_km": 540.7139076617618,
      "semi_major_axis_km": 6917.903108764757,
      "eccentricity": 0.0001238,
      "inclination_deg": 53.217,
      "raan_deg": 222.0155,
      "arg_perigee_deg": 93.479,
      "mean_anomaly_deg": 266.6344,
      "mean_motion_rev_day": 15.08832567
    },
    {
      "epoch": "2026-04-23T14:10:19.028064Z",
      "apogee_km": 540.620872334991,
      "perigee_km": 538.8922290945375,
      "latitude_deg": -1.858021212025236e-05,
      "longitude_deg": 153.34035972394346,
      "height_km": 540.6799532492902,
      "semi_major_axis_km": 6917.8935507147635,
      "eccentricity": 0.00012494,
      "inclination_deg": 53.2171,
      "raan_deg": 217.5552,
      "arg_perigee_deg": 91.8282,
      "mean_anomaly_deg": 268.2853,
      "mean_motion_rev_day": 15.08835694
    },
    {
      "epoch": "2026-04-24T15:36:28.873152Z",
      "apogee_km": 540.5691179266123,
      "perigee_km": 538.9171281532308,
      "latitude_deg": 4.48577591593776e-06,
      "longitude_deg": 125.99663216310995,
      "height_km": 540.6469561704844,
      "semi_major_axis_km": 6917.880123039921,
      "eccentricity": 0.0001194,
      "inclination_deg": 53.217,
      "raan_deg": 212.7971,
      "arg_perigee_deg": 90.5509,
      "mean_anomaly_deg": 269.562,
      "mean_motion_rev_day": 15.08840087
    },
    {
      "epoch": "2026-04-25T13:51:52.655328Z",
      "apogee_km": 540.5132717346751,
      "perigee_km": 538.9609007897179,
      "latitude_deg": -4.596804056944938e-05,
      "longitude_deg": 147.06975556388628,
      "height_km": 540.6005806273863,
      "semi_major_axis_km": 6917.874086262196,
      "eccentricity": 0.0001122,
      "inclination_deg": 53.2164,
      "raan_deg": 208.6334,
      "arg_perigee_deg": 87.6046,
      "mean_anomaly_deg": 272.5074,
      "mean_motion_rev_day": 15.08842062
    },
    {
      "epoch": "2026-04-26T12:07:17.133888Z",
      "apogee_km": 540.5612061977354,
      "perigee_km": 538.9402067503543,
      "latitude_deg": -2.858611107377735e-05,
      "longitude_deg": 168.14072046408486,
      "height_km": 540.6354786277643,
      "semi_major_axis_km": 6917.8877064740445,
      "eccentricity": 0.00011716,
      "inclination_deg": 53.2162,
      "raan_deg": 204.4704,
      "arg_perigee_deg": 89.2175,
      "mean_anomaly_deg": 270.8951,
      "mean_motion_rev_day": 15.08837606
    },
    {
      "epoch": "2026-04-27T11:58:03.619200Z",
      "apogee_km": 540.5676643013057,
      "perigee_km": 538.8949237478109,
      "latitude_deg": 5.101560417654466e-05,
      "longitude_deg": 165.00816101502033,
      "height_km": 540.5733319231157,
      "semi_major_axis_km": 6917.868294024558,
      "eccentricity": 0.0001209,
      "inclination_deg": 53.2169,
      "raan_deg": 200.0108,
      "arg_perigee_deg": 86.3104,
      "mean_anomaly_deg": 273.8027,
      "mean_motion_rev_day": 15.08843957
    },
    {
      "epoch": "2026-04-28T11:48:51.200064Z",
      "apogee_km": 540.6801427257524,
      "perigee_km": 538.8358319221325,
      "latitude_deg": 1.9049718421141845e-05,
      "longitude_deg": 161.8683413899578,
      "height_km": 540.6869379928637,
      "semi_major_axis_km": 6917.894987323943,
      "eccentricity": 0.0001333,
      "inclination_deg": 53.2155,
      "raan_deg": 195.5486,
      "arg_perigee_deg": 92.0765,
      "mean_anomaly_deg": 268.038,
      "mean_motion_rev_day": 15.08835224
    },
    {
      "epoch": "2026-04-29T08:28:52.049280Z",
      "apogee_km": 540.6220067376007,
      "perigee_km": 538.8762089994179,
      "latitude_deg": 2.55422757730531e-05,
      "longitude_deg": -152.84905126152694,
      "height_km": 540.6606457827836,
      "semi_major_axis_km": 6917.886107868509,
      "eccentricity": 0.00012618,
      "inclination_deg": 53.2159,
      "raan_deg": 191.6835,
      "arg_perigee_deg": 91.0411,
      "mean_anomaly_deg": 269.0726,
      "mean_motion_rev_day": 15.08838129
    },
    {
      "epoch": "2026-04-30T11:30:25.350912Z",
      "apogee_km": 540.5318570520458,
      "perigee_km": 538.9670311383907,
      "latitude_deg": -4.918388564808683e-05,
      "longitude_deg": 155.59812133969334,
      "height_km": 540.6132253369459,
      "semi_major_axis_km": 6917.8864440952175,
      "eccentricity": 0.0001131,
      "inclination_deg": 53.217,
      "raan_deg": 186.6294,
      "arg_perigee_deg": 87.641,
      "mean_anomaly_deg": 272.4711,
      "mean_motion_rev_day": 15.08838019
    }
  ]
}